{
  "type": "FeatureCollection",
  "features": [
    {
      "type": "Feature",
      "properties": {
        "norad_id": 66676,
        "name": "TRANSPORTER-15L",
        "group": "last-30-days",
        "lat": 38.8191513185134,
        "lon": 65.41829304869039,
        "alt_km": 513.7911303580322,
        "timestamp": "2025-12-25T22:42:15.707786+00:00",
        "meta_object_name": "TRANSPORTER-15L",
        "meta_object_id": "2025-276L",
        "meta_epoch": "2025-12-25T17:46:54.744096",
        "meta_mean_motion": 15.16721623,
        "meta_eccentricity": 0.0002414,
        "meta_inclination": 97.436,
        "meta_ra_of_asc_node": 71.2491,
        "meta_arg_of_pericenter": 281.8521,
        "meta_mean_anomaly": 78.2441,
        "meta_ephemeris_type": 0,
        "meta_classification_type": "U",
        "meta_norad_cat_id": 66676,
        "meta_element_set_no": 999,
        "meta_rev_at_epoch": 409,
        "meta_bstar": -0.004654,
        "meta_mean_motion_dot": -0.00090114,
        "meta_mean_motion_ddot": 0,
        "tle_line1": "1 66676U 25276L   25359.74091139 -.00090114  00000+0 -46540-2 0  9998",
        "tle_line2": "2 66676  97.4360  71.2491 0002414 281.8521  78.2441 15.16721623  4097"
      },
      "geometry": {
        "type": "Point",
        "coordinates": [
          65.41829304869039,
          38.8191513185134
        ]
      }
    },
    {
      "type": "Feature",
      "properties": {
        "norad_id": 66677,
        "name": "TRANSPORTER-15M",
        "group": "last-30-days",
        "lat": 82.55675786844243,
        "lon": -17.99974179574663,
        "alt_km": 508.2293708321122,
        "timestamp": "2025-12-25T22:42:15.707796+00:00",
        "meta_object_name": "TRANSPORTER-15M",
        "meta_object_id": "2025-276M",
        "meta_epoch": "2025-12-25T17:33:42.765408",
        "meta_mean_motion": 15.17564555,
        "meta_eccentricity": 0.0003878,
        "meta_inclination": 97.4378,
        "meta_ra_of_asc_node": 71.2536,
        "meta_arg_of_pericenter": 250.7515,
        "meta_mean_anomaly": 109.3299,
        "meta_ephemeris_type": 0,
        "meta_classification_type": "U",
        "meta_norad_cat_id": 66677,
        "meta_element_set_no": 999,
        "meta_rev_at_epoch": 409,
        "meta_bstar": 0.00073953,
        "meta_mean_motion_dot": 0.00014804,
        "meta_mean_motion_ddot": 0,
        "tle_line1": "1 66677U 25276M   25359.73174497  .00014804  00000+0  73953-3 0  9996",
        "tle_line2": "2 66677  97.4378  71.2536 0003878 250.7515 109.3299 15.17564555  4097"
      },
      "geometry": {
        "type": "Point",
        "coordinates": [
          -17.99974179574663,
          82.55675786844243
        ]
      }
    },
    {
      "type": "Feature",
      "properties": {
        "norad_id": 66678,
        "name": "TRANSPORTER-15N",
        "group": "last-30-days",
        "lat": 43.648900366810565,
        "lon": 64.28221813202744,
        "alt_km": 502.8328696657072,
        "timestamp": "2025-12-25T22:42:15.707807+00:00",
        "meta_object_name": "TRANSPORTER-15N",
        "meta_object_id": "2025-276N",
        "meta_epoch": "2025-12-25T17:45:44.322048",
        "meta_mean_motion": 15.17118398,
        "meta_eccentricity": 0.0013011,
        "meta_inclination": 97.4387,
        "meta_ra_of_asc_node": 71.2397,
        "meta_arg_of_pericenter": 16.98,
        "meta_mean_anomaly": 343.1866,
        "meta_ephemeris_type": 0,
        "meta_classification_type": "U",
        "meta_norad_cat_id": 66678,
        "meta_element_set_no": 999,
        "meta_rev_at_epoch": 409,
        "meta_bstar": 0.0083856,
        "meta_mean_motion_dot": 0.00170281,
        "meta_mean_motion_ddot": 0,
        "tle_line1": "1 66678U 25276N   25359.74009632  .00170281  00000+0  83856-2 0  9990",
        "tle_line2": "2 66678  97.4387  71.2397 0013011  16.9800 343.1866 15.17118398  4090"
      },
      "geometry": {
        "type": "Point",
        "coordinates": [
          64.28221813202744,
          43.648900366810565
        ]
      }
    },
    {
      "type": "Feature",
      "properties": {
        "norad_id": 66679,
        "name": "TRANSPORTER-15P",
        "group": "last-30-days",
        "lat": 34.43331419501721,
        "lon": 66.29884814056767,
        "alt_km": 516.4593608356454,
        "timestamp": "2025-12-25T22:42:15.707818+00:00",
        "meta_object_name": "TRANSPORTER-15P",
        "meta_object_id": "2025-276P",
        "meta_epoch": "2025-12-25T17:48:04.874112",
        "meta_mean_motion": 15.16716769,
        "meta_eccentricity": 0.0004737,
        "meta_inclination": 97.4359,
        "meta_ra_of_asc_node": 71.2356,
        "meta_arg_of_pericenter": 244.5258,
        "meta_mean_anomaly": 115.5486,
        "meta_ephemeris_type": 0,
        "meta_classification_type": "U",
        "meta_norad_cat_id": 66679,
        "meta_element_set_no": 999,
        "meta_rev_at_epoch": 409,
        "meta_bstar": 0.0002223,
        "meta_mean_motion_dot": 4.292e-05,
        "meta_mean_motion_ddot": 0,
        "tle_line1": "1 66679U 25276P   25359.74172308  .00004292  00000+0  22230-3 0  9990",
        "tle_line2": "2 66679  97.4359  71.2356 0004737 244.5258 115.5486 15.16716769  4090"
      },
      "geometry": {
        "type": "Point",
        "coordinates": [
          66.29884814056767,
          34.43331419501721
        ]
      }
    },
    {
      "type": "Feature",
      "properties": {
        "norad_id": 66680,
        "name": "TRANSPORTER-15Q",
        "group": "last-30-days",
        "lat": 43.864116145673506,
        "lon": 64.23954599050117,
        "alt_km": 514.9321375211248,
        "timestamp": "2025-12-25T22:42:15.707832+00:00",
        "meta_object_name": "TRANSPORTER-15Q",
        "meta_object_id": "2025-276Q",
        "meta_epoch": "2025-12-25T05:05:38.818176",
        "meta_mean_motion": 15.16866532,
        "meta_eccentricity": 0.000484,
        "meta_inclination": 97.4407,
        "meta_ra_of_asc_node": 70.7353,
        "meta_arg_of_pericenter": 236.3987,
        "meta_mean_anomaly": 123.6784,
        "meta_ephemeris_type": 0,
        "meta_classification_type": "U",
        "meta_norad_cat_id": 66680,
        "meta_element_set_no": 999,
        "meta_rev_at_epoch": 401,
        "meta_bstar": 0.00055928,
        "meta_mean_motion_dot": 0.00010954,
        "meta_mean_motion_ddot": 0,
        "tle_line1": "1 66680U 25276Q   25359.21225484  .00010954  00000+0  55928-3 0  9990",
        "tle_line2": "2 66680  97.4407  70.7353 0004840 236.3987 123.6784 15.16866532  4017"
      },
      "geometry": {
        "type": "Point",
        "coordinates": [
          64.23954599050117,
          43.864116145673506
        ]
      }
    },
    {
      "type": "Feature",
      "properties": {
        "norad_id": 66681,
        "name": "TRANSPORTER-15R",
        "group": "last-30-days",
        "lat": 76.86144367465577,
        "lon": 37.435721783152516,
        "alt_km": 509.38494121163694,
        "timestamp": "2025-12-25T22:42:15.707842+00:00",
        "meta_object_name": "TRANSPORTER-15R",
        "meta_object_id": "2025-276R",
        "meta_epoch": "2025-12-25T17:36:33.096096",
        "meta_mean_motion": 15.17548487,
        "meta_eccentricity": 0.0004911,
        "meta_inclination": 97.433,
        "meta_ra_of_asc_node": 71.2359,
        "meta_arg_of_pericenter": 263.1299,
        "meta_mean_anomaly": 96.9376,
        "meta_ephemeris_type": 0,
        "meta_classification_type": "U",
        "meta_norad_cat_id": 66681,
        "meta_element_set_no": 999,
        "meta_rev_at_epoch": 409,
        "meta_bstar": 0.0009173,
        "meta_mean_motion_dot": 0.00018381,
        "meta_mean_motion_ddot": 0,
        "tle_line1": "1 66681U 25276R   25359.73371639  .00018381  00000+0  91730-3 0  9995",
        "tle_line2": "2 66681  97.4330  71.2359 0004911 263.1299  96.9376 15.17548487  4092"
      },
      "geometry": {
        "type": "Point",
        "coordinates": [
          37.435721783152516,
          76.86144367465577
        ]
      }
    },
    {
      "type": "Feature",
      "properties": {
        "norad_id": 66682,
        "name": "TRANSPORTER-15S",
        "group": "last-30-days",
        "lat": 48.96838947600468,
        "lon": 62.829977993161094,
        "alt_km": 518.9404727858637,
        "timestamp": "2025-12-25T22:42:15.707854+00:00",
        "meta_object_name": "TRANSPORTER-15S",
        "meta_object_id": "2025-276S",
        "meta_epoch": "2025-12-25T16:08:21.073632",
        "meta_mean_motion": 15.13555628,
        "meta_eccentricity": 0.0012427,
        "meta_inclination": 97.4452,
        "meta_ra_of_asc_node": 71.2051,
        "meta_arg_of_pericenter": 124.0524,
        "meta_mean_anomaly": 236.1889,
        "meta_ephemeris_type": 0,
        "meta_classification_type": "U",
        "meta_norad_cat_id": 66682,
        "meta_element_set_no": 999,
        "meta_rev_at_epoch": 408,
        "meta_bstar": -0.013927,
        "meta_mean_motion_dot": -0.00242007,
        "meta_mean_motion_ddot": 0,
        "tle_line1": "1 66682U 25276S   25359.67246613 -.00242007  00000+0 -13927-1 0  9998",
        "tle_line2": "2 66682  97.4452  71.2051 0012427 124.0524 236.1889 15.13555628  4081"
      },
      "geometry": {
        "type": "Point",
        "coordinates": [
          62.829977993161094,
          48.96838947600468
        ]
      }
    }
  ]
}